[{"OBJECT_NAME":"STARLINK-3660","OBJECT_ID":"2022-025X","EPOCH":"2026-03-09T05:17:47.321376","MEAN_MOTION":15.08834026,"ECCENTRICITY":0.0001665,"INCLINATION":53.2185,"RA_OF_ASC_NODE":21.2343,"ARG_OF_PERICENTER":92.0812,"MEAN_ANOMALY":268.0371,"EPHEMERIS_TYPE":0,"CLASSIFICATION_TYPE":"U","NORAD_CAT_ID":51977,"ELEMENT_SET_NO":999,"REV_AT_EPOCH":22126,"BSTAR":4.1805961e-5,"MEAN_MOTION_DOT":3.77e-6,"MEAN_MOTION_DDOT":0},{"OBJECT_NAME":"ELECTRON KICK STAGE R\/B","OBJECT_ID":"2023-035A","EPOCH":"2026-03-09T00:22:03.988416","MEAN_MOTION":15.09409521,"ECCENTRICITY":0.00017263,"INCLINATION":44.1756,"RA_OF_ASC_NODE":311.3301,"ARG_OF_PERICENTER":9.8979,"MEAN_ANOMALY":350.1918,"EPHEMERIS_TYPE":0,"CLASSIFICATION_TYPE":"U","NORAD_CAT_ID":55908,"ELEMENT_SET_NO":999,"REV_AT_EPOCH":16322,"BSTAR":0.00066616987,"MEAN_MOTION_DOT":0.00010608,"MEAN_MOTION_DDOT":0}]
